IDEFIX & ARIANE 42P R/B 
1 27422U 02021B   26024.72549264  .00000587  00000+0  23967-3 0  9994
2 27422  98.5830 323.8696 0011200 321.9204  38.1186 14.30989981237735
AQUA                    
1 27424U 02022A   26024.95125529  .00001998  00000+0  40952-3 0  9996
2 27424  98.4098 351.5468 0001900  66.2876   6.3059 14.61857159262343
CZ-4B R/B               
1 27432U 02024C   26024.60115845  .00000103  00000+0  75751-4 0  9992
2 27432  98.8933  78.2098 0050755 147.3616  15.3453 14.14538758223008
MIDORI II (ADEOS-II)    
1 27597U 02056A   26024.42013617  .00000664  00000+0  27906-3 0  9993
2 27597  98.7697 342.6146 0001970 104.9189 255.2211 14.29246517203973
H-2A R/B                
1 27601U 02056E   26024.47130817  .00000682  00000+0  25404-3 0  9997
2 27601  98.3126 346.5424 0069163 293.9150 175.7162 14.33723309207776
CZ-4B R/B               
1 28059U 03049C   26024.92172022  .00000913  00000+0  22068-3 0  9992
2 28059  98.6829  18.1274 0048392   6.6949 353.4883 14.54964845180239
CZ-2C R/B               
1 28222U 04012C   26024.78882879  .00055893  00000+0  69848-3 0  9991
2 28222  97.7332  86.0729 0016928 111.7450 248.5610 15.59494720197421
SL-16 R/B               
1 28353U 04021B   26024.82725961 -.00000170  00000+0 -63642-4 0  9996
2 28353  71.0026 324.5426 0002645 120.7808 239.3575 14.14591896116637
CZ-4B R/B               
1 28415U 04035C   26024.00377752  .00012269  00000+0  44135-3 0  9996
2 28415  97.3564  58.7960 0034114 125.5200 234.9230 15.28192064173089
CZ-2C R/B               
1 28480U 04046B   26024.73135769  .00000324  00000+0  13637-3 0  9992
2 28480  98.2000 302.4433 0138281 285.0750  73.5167 14.26972557102237
ARIANE 5 R/B            
1 28499U 04049H   26024.90905613  .00001851  00000+0  20950-3 0  9999
2 28499  98.2557 191.7496 0085259 132.4462 228.4002 14.85158326139293
CZ-2D R/B               
1 28738U 05024B   26024.97566577  .00046565  00000+0  66045-3 0  9994
2 28738  97.3629  38.6479 0005683 155.8672 204.2851 15.56299723132972
