CCSDS_OMM_VERS = 2.0
CREATION_DATE  = 
ORIGINATOR     = 

OBJECT_NAME    = IDEFIX & ARIANE 42P R/B
OBJECT_ID      = 2002-021B
CENTER_NAME    = EARTH
REF_FRAME      = TEME
TIME_SYSTEM    = UTC
MEAN_ELEMENT_THEORY = SGP/SGP4

EPOCH          = 2026-01-24T17:24:42.564096
MEAN_MOTION    = 14.30989981
ECCENTRICITY   = .00112007
INCLINATION    = 98.5830
RA_OF_ASC_NODE = 323.8696
ARG_OF_PERICENTER = 321.9204
MEAN_ANOMALY   = 38.1186

EPHEMERIS_TYPE = 0
CLASSIFICATION_TYPE = U
NORAD_CAT_ID   = 27422
ELEMENT_SET_NO = 999
REV_AT_EPOCH   = 23773
BSTAR          = .23966528E-3
MEAN_MOTION_DOT = .587E-5
MEAN_MOTION_DDOT = 0

CCSDS_OMM_VERS = 2.0
CREATION_DATE  = 
ORIGINATOR     = 

OBJECT_NAME    = AQUA
OBJECT_ID      = 2002-022A
CENTER_NAME    = EARTH
REF_FRAME      = TEME
TIME_SYSTEM    = UTC
MEAN_ELEMENT_THEORY = SGP/SGP4

EPOCH          = 2026-01-24T22:49:48.457056
MEAN_MOTION    = 14.61857159
ECCENTRICITY   = .00019005
INCLINATION    = 98.4098
RA_OF_ASC_NODE = 351.5468
ARG_OF_PERICENTER = 66.2876
MEAN_ANOMALY   = 6.3059

EPHEMERIS_TYPE = 0
CLASSIFICATION_TYPE = U
NORAD_CAT_ID   = 27424
ELEMENT_SET_NO = 999
REV_AT_EPOCH   = 26234
BSTAR          = .40951707E-3
MEAN_MOTION_DOT = .1998E-4
MEAN_MOTION_DDOT = 0

CCSDS_OMM_VERS = 2.0
CREATION_DATE  = 
ORIGINATOR     = 

OBJECT_NAME    = CZ-4B R/B
OBJECT_ID      = 2002-024C
CENTER_NAME    = EARTH
REF_FRAME      = TEME
TIME_SYSTEM    = UTC
MEAN_ELEMENT_THEORY = SGP/SGP4

EPOCH          = 2026-01-24T14:25:40.090080
MEAN_MOTION    = 14.14538758
ECCENTRICITY   = .00507553
INCLINATION    = 98.8933
RA_OF_ASC_NODE = 78.2098
ARG_OF_PERICENTER = 147.3616
MEAN_ANOMALY   = 15.3453

EPHEMERIS_TYPE = 0
CLASSIFICATION_TYPE = U
NORAD_CAT_ID   = 27432
ELEMENT_SET_NO = 999
REV_AT_EPOCH   = 22300
BSTAR          = .75751045E-4
MEAN_MOTION_DOT = .103E-5
MEAN_MOTION_DDOT = 0

CCSDS_OMM_VERS = 2.0
CREATION_DATE  = 
ORIGINATOR     = 

OBJECT_NAME    = MIDORI II (ADEOS-II)
OBJECT_ID      = 2002-056A
CENTER_NAME    = EARTH
REF_FRAME      = TEME
TIME_SYSTEM    = UTC
MEAN_ELEMENT_THEORY = SGP/SGP4

EPOCH          = 2026-01-24T10:04:59.765088
MEAN_MOTION    = 14.29246517
ECCENTRICITY   = .00019705
INCLINATION    = 98.7697
RA_OF_ASC_NODE = 342.6146
ARG_OF_PERICENTER = 104.9189
MEAN_ANOMALY   = 255.2211

EPHEMERIS_TYPE = 0
CLASSIFICATION_TYPE = U
NORAD_CAT_ID   = 27597
ELEMENT_SET_NO = 999
REV_AT_EPOCH   = 20397
BSTAR          = .27905719E-3
MEAN_MOTION_DOT = .664E-5
MEAN_MOTION_DDOT = 0

CCSDS_OMM_VERS = 2.0
CREATION_DATE  = 
ORIGINATOR     = 

OBJECT_NAME    = H-2A R/B
OBJECT_ID      = 2002-056E
CENTER_NAME    = EARTH
REF_FRAME      = TEME
TIME_SYSTEM    = UTC
MEAN_ELEMENT_THEORY = SGP/SGP4

EPOCH          = 2026-01-24T11:18:41.025888
MEAN_MOTION    = 14.33723309
ECCENTRICITY   = .0069163
INCLINATION    = 98.3126
RA_OF_ASC_NODE = 346.5424
ARG_OF_PERICENTER = 293.9150
MEAN_ANOMALY   = 175.7162

EPHEMERIS_TYPE = 0
CLASSIFICATION_TYPE = U
NORAD_CAT_ID   = 27601
ELEMENT_SET_NO = 999
REV_AT_EPOCH   = 20777
BSTAR          = .25403722E-3
MEAN_MOTION_DOT = .682E-5
MEAN_MOTION_DDOT = 0

CCSDS_OMM_VERS = 2.0
CREATION_DATE  = 
ORIGINATOR     = 

OBJECT_NAME    = CZ-4B R/B
OBJECT_ID      = 2003-049C
CENTER_NAME    = EARTH
REF_FRAME      = TEME
TIME_SYSTEM    = UTC
MEAN_ELEMENT_THEORY = SGP/SGP4

EPOCH          = 2026-01-24T22:07:16.627008
MEAN_MOTION    = 14.54964845
ECCENTRICITY   = .00483922
INCLINATION    = 98.6829
RA_OF_ASC_NODE = 18.1274
ARG_OF_PERICENTER = 6.6949
MEAN_ANOMALY   = 353.4883

EPHEMERIS_TYPE = 0
CLASSIFICATION_TYPE = U
NORAD_CAT_ID   = 28059
ELEMENT_SET_NO = 999
REV_AT_EPOCH   = 18023
BSTAR          = .22067724E-3
MEAN_MOTION_DOT = .913E-5
MEAN_MOTION_DDOT = 0

CCSDS_OMM_VERS = 2.0
CREATION_DATE  = 
ORIGINATOR     = 

OBJECT_NAME    = CZ-2C R/B
OBJECT_ID      = 2004-012C
CENTER_NAME    = EARTH
REF_FRAME      = TEME
TIME_SYSTEM    = UTC
MEAN_ELEMENT_THEORY = SGP/SGP4

EPOCH          = 2026-01-24T18:55:54.807456
MEAN_MOTION    = 15.59494720
ECCENTRICITY   = .00169284
INCLINATION    = 97.7332
RA_OF_ASC_NODE = 86.0729
ARG_OF_PERICENTER = 111.7450
MEAN_ANOMALY   = 248.5610

EPHEMERIS_TYPE = 0
CLASSIFICATION_TYPE = U
NORAD_CAT_ID   = 28222
ELEMENT_SET_NO = 999
REV_AT_EPOCH   = 19742
BSTAR          = .69847888E-3
MEAN_MOTION_DOT = .55893E-3
MEAN_MOTION_DDOT = 0

CCSDS_OMM_VERS = 2.0
CREATION_DATE  = 
ORIGINATOR     = 

OBJECT_NAME    = SL-16 R/B
OBJECT_ID      = 2004-021B
CENTER_NAME    = EARTH
REF_FRAME      = TEME
TIME_SYSTEM    = UTC
MEAN_ELEMENT_THEORY = SGP/SGP4

EPOCH          = 2026-01-24T19:51:15.230304
MEAN_MOTION    = 14.14591896
ECCENTRICITY   = .0002645
INCLINATION    = 71.0026
RA_OF_ASC_NODE = 324.5426
ARG_OF_PERICENTER = 120.7808
MEAN_ANOMALY   = 239.3575

EPHEMERIS_TYPE = 0
CLASSIFICATION_TYPE = U
NORAD_CAT_ID   = 28353
ELEMENT_SET_NO = 999
REV_AT_EPOCH   = 11663
BSTAR          = -.63641571E-4
MEAN_MOTION_DOT = -.17E-5
MEAN_MOTION_DDOT = 0

CCSDS_OMM_VERS = 2.0
CREATION_DATE  = 
ORIGINATOR     = 

OBJECT_NAME    = CZ-4B R/B
OBJECT_ID      = 2004-035C
CENTER_NAME    = EARTH
REF_FRAME      = TEME
TIME_SYSTEM    = UTC
MEAN_ELEMENT_THEORY = SGP/SGP4

EPOCH          = 2026-01-24T00:05:26.377728
MEAN_MOTION    = 15.28192064
ECCENTRICITY   = .00341143
INCLINATION    = 97.3564
RA_OF_ASC_NODE = 58.7960
ARG_OF_PERICENTER = 125.5200
MEAN_ANOMALY   = 234.9230

EPHEMERIS_TYPE = 0
CLASSIFICATION_TYPE = U
NORAD_CAT_ID   = 28415
ELEMENT_SET_NO = 999
REV_AT_EPOCH   = 17308
BSTAR          = .4413487E-3
MEAN_MOTION_DOT = .12269E-3
MEAN_MOTION_DDOT = 0

CCSDS_OMM_VERS = 2.0
CREATION_DATE  = 
ORIGINATOR     = 

OBJECT_NAME    = CZ-2C R/B
OBJECT_ID      = 2004-046B
CENTER_NAME    = EARTH
REF_FRAME      = TEME
TIME_SYSTEM    = UTC
MEAN_ELEMENT_THEORY = SGP/SGP4

EPOCH          = 2026-01-24T17:33:09.304416
MEAN_MOTION    = 14.26972557
ECCENTRICITY   = .01382818
INCLINATION    = 98.2000
RA_OF_ASC_NODE = 302.4433
ARG_OF_PERICENTER = 285.0750
MEAN_ANOMALY   = 73.5167

EPHEMERIS_TYPE = 0
CLASSIFICATION_TYPE = U
NORAD_CAT_ID   = 28480
ELEMENT_SET_NO = 999
REV_AT_EPOCH   = 10223
BSTAR          = .13637214E-3
MEAN_MOTION_DOT = .324E-5
MEAN_MOTION_DDOT = 0

CCSDS_OMM_VERS = 2.0
CREATION_DATE  = 
ORIGINATOR     = 

OBJECT_NAME    = ARIANE 5 R/B
OBJECT_ID      = 2004-049H
CENTER_NAME    = EARTH
REF_FRAME      = TEME
TIME_SYSTEM    = UTC
MEAN_ELEMENT_THEORY = SGP/SGP4

EPOCH          = 2026-01-24T21:49:02.449632
MEAN_MOTION    = 14.85158326
ECCENTRICITY   = .00852595
INCLINATION    = 98.2557
RA_OF_ASC_NODE = 191.7496
ARG_OF_PERICENTER = 132.4462
MEAN_ANOMALY   = 228.4002

EPHEMERIS_TYPE = 0
CLASSIFICATION_TYPE = U
NORAD_CAT_ID   = 28499
ELEMENT_SET_NO = 999
REV_AT_EPOCH   = 13929
BSTAR          = .2095041E-3
MEAN_MOTION_DOT = .1851E-4
MEAN_MOTION_DDOT = 0

CCSDS_OMM_VERS = 2.0
CREATION_DATE  = 
ORIGINATOR     = 

OBJECT_NAME    = CZ-2D R/B
OBJECT_ID      = 2005-024B
CENTER_NAME    = EARTH
REF_FRAME      = TEME
TIME_SYSTEM    = UTC
MEAN_ELEMENT_THEORY = SGP/SGP4

EPOCH          = 2026-01-24T23:24:57.522528
MEAN_MOTION    = 15.56299723
ECCENTRICITY   = .0005683
INCLINATION    = 97.3629
RA_OF_ASC_NODE = 38.6479
ARG_OF_PERICENTER = 155.8672
MEAN_ANOMALY   = 204.2851

EPHEMERIS_TYPE = 0
CLASSIFICATION_TYPE = U
NORAD_CAT_ID   = 28738
ELEMENT_SET_NO = 999
REV_AT_EPOCH   = 13297
BSTAR          = .660453E-3
MEAN_MOTION_DOT = .46565E-3
MEAN_MOTION_DDOT = 0

